[{"OBJECT_NAME":"SITRO-AIS 8 (ANOKHIN)","OBJECT_ID":"2023-091AD","EPOCH":"2026-03-09T23:44:40.058592","MEAN_MOTION":15.29359179,"ECCENTRICITY":0.0012509,"INCLINATION":97.5169,"RA_OF_ASC_NODE":133.2823,"ARG_OF_PERICENTER":92.0171,"MEAN_ANOMALY":268.2501,"EPHEMERIS_TYPE":0,"CLASSIFICATION_TYPE":"U","NORAD_CAT_ID":57193,"ELEMENT_SET_NO":999,"REV_AT_EPOCH":14927,"BSTAR":0.00064982524,"MEAN_MOTION_DOT":0.00018494,"MEAN_MOTION_DDOT":0},{"OBJECT_NAME":"STARLINK-32121","OBJECT_ID":"2024-131K","EPOCH":"2026-03-09T06:30:06.932448","MEAN_MOTION":15.3018887,"ECCENTRICITY":0.00014702,"INCLINATION":53.1616,"RA_OF_ASC_NODE":54.4383,"ARG_OF_PERICENTER":85.7966,"MEAN_ANOMALY":274.3203,"EPHEMERIS_TYPE":0,"CLASSIFICATION_TYPE":"U","NORAD_CAT_ID":60264,"ELEMENT_SET_NO":999,"REV_AT_EPOCH":9170,"BSTAR":-4.8616436e-5,"MEAN_MOTION_DOT":-1.798e-5,"MEAN_MOTION_DDOT":0}]
